$$SOE
2459580.500000000, A.D. 2022-Jan-01 00:00:00.0000, -6.804672722111818E+07, -2.615860556377491E+08, 1.154536592178875E+07,
2459587.500000000, A.D. 2022-Jan-08 00:00:00.0000, -5.272690949165224E+07, -2.624746151371217E+08, 1.401638493918645E+07,
2459594.500000000, A.D. 2022-Jan-15 00:00:00.0000, -3.727445202034917E+07, -2.627020614980889E+08, 1.645207181600420E+07,
2459601.500000000, A.D. 2022-Jan-22 00:00:00.0000, -2.172586647879362E+07, -2.622509677782639E+08, 1.884523693192114E+07,
2459608.500000000, A.D. 2022-Jan-29 00:00:00.0000, -6.119996788388704E+06, -2.611068485157170E+08, 2.118857560639542E+07,
2459615.500000000, A.D. 2022-Feb-05 00:00:00.0000, 9.502270472901180E+06, -2.592585373261654E+08, 2.347474584781054E+07,
2459622.500000000, A.D. 2022-Feb-12 00:00:00.0000, 2.509836688490916E+07, -2.566985284087184E+08, 2.569645346186712E+07,
2459629.500000000, A.D. 2022-Feb-19 00:00:00.0000, 4.062446777982428E+07, -2.534232644747533E+08, 2.784654275220890E+07,
2459636.500000000, A.D. 2022-Feb-26 00:00:00.0000, 5.603597249156262E+07, -2.494333575632049E+08, 2.991809028713902E+07,
2459643.500000000, A.D. 2022-Mar-05 00:00:00.0000, 7.128802705522633E+07, -2.447337310143940E+08, 3.190449868732524E+07,
2459650.500000000, A.D. 2022-Mar-12 00:00:00.0000, 8.633607413987902E+07, -2.393336732590260E+08, 3.379958719722624E+07,
2459657.500000000, A.D. 2022-Mar-19 00:00:00.0000, 1.011364125669161E+08, -2.332467977829612E+08, 3.559767578935482E+07,
2459664.500000000, A.D. 2022-Mar-26 00:00:00.0000, 1.156467474990075E+08, -2.264909080554658E+08, 3.729365973163456E+07,
2459671.500000000, A.D. 2022-Apr-02 00:00:00.0000, 1.298267124407791E+08, -2.190877709028084E+08, 3.888307193462601E+07,
2459678.500000000, A.D. 2022-Apr-09 00:00:00.0000, 1.436383456653983E+08, -2.110628062517014E+08, 4.036213096613355E+07,
2459685.500000000, A.D. 2022-Apr-16 00:00:00.0000, 1.570465061881165E+08, -2.024447044805521E+08, 4.172777338426567E+07,
2459692.500000000, A.D. 2022-Apr-23 00:00:00.0000, 1.700192161413633E+08, -1.932649852743351E+08, 4.297767001062735E+07,
2459699.500000000, A.D. 2022-Apr-30 00:00:00.0000, 1.825279197883627E+08, -1.835575171999837E+08, 4.411022633797812E+07,
2459706.500000000, A.D. 2022-May-07 00:00:00.0000, 1.945476585882995E+08, -1.733580177495387E+08, 4.512456756755616E+07,
2459713.500000000, A.D. 2022-May-14 00:00:00.0000, 2.060571641879634E+08, -1.627035482344465E+08, 4.602050995274851E+07,
2459720.500000000, A.D. 2022-May-21 00:00:00.0000, 2.170388714950060E+08, -1.516320188173571E+08, 4.679852071350907E+07,
2459727.500000000, A.D. 2022-May-28 00:00:00.0000, 2.274788585753077E+08, -1.401817185007916E+08, 4.745966878586157E+07,
2459734.500000000, A.D. 2022-Jun-04 00:00:00.0000, 2.373667231138001E+08, -1.283908815305024E+08, 4.800556876905245E+07,
2459741.500000000, A.D. 2022-Jun-11 00:00:00.0000, 2.466954064513163E+08, -1.162972983987846E+08, 4.843832044302034E+07,
2459748.500000000, A.D. 2022-Jun-18 00:00:00.0000, 2.554609767031291E+08, -1.039379766843077E+08, 4.876044609491081E+07,
2459755.500000000, A.D. 2022-Jun-25 00:00:00.0000, 2.636623823353285E+08, -9.134885429289038E+07, 4.897482764911281E+07,
2459762.500000000, A.D. 2022-Jul-02 00:00:00.0000, 2.713011869798734E+08, -7.856456532378334E+07, 4.908464526993561E+07,
2459769.500000000, A.D. 2022-Jul-09 00:00:00.0000, 2.783812954194895E+08, -6.561825658951571E+07, 4.909331875614870E+07,
2459776.500000000, A.D. 2022-Jul-16 00:00:00.0000, 2.849086788917652E+08, -5.254145041958499E+07, 4.900445282466619E+07,
2459783.500000000, A.D. 2022-Jul-23 00:00:00.0000, 2.908911042774375E+08, -3.936394936236901E+07, 4.882178718475538E+07,
2459790.500000000, A.D. 2022-Jul-30 00:00:00.0000, 2.963378725588745E+08, -2.611378121928481E+07, 4.854915152983527E+07,
2459797.500000000, A.D. 2022-Aug-06 00:00:00.0000, 3.012595740702958E+08, -1.281717856474334E+07, 4.819042533798991E+07,
2459804.500000000, A.D. 2022-Aug-13 00:00:00.0000, 3.056678624133887E+08, 5.014151946457885E+05, 4.774950276228803E+07,
2459811.500000000, A.D. 2022-Aug-20 00:00:00.0000, 3.095752471065925E+08, 1.381931768872953E+07, 4.723026254885222E+07,
2459818.500000000, A.D. 2022-Aug-27 00:00:00.0000, 3.129949057890892E+08, 2.711556126048676E+07, 4.663654264440601E+07,
2459825.500000000, A.D. 2022-Sep-03 00:00:00.0000, 3.159405162726567E+08, 4.037083249556301E+07, 4.597211911617676E+07,
2459832.500000000, A.D. 2022-Sep-10 00:00:00.0000, 3.184261080344653E+08, 5.356740128815573E+07, 4.524068898958267E+07,
2459839.500000000, A.D. 2022-Sep-17 00:00:00.0000, 3.204659322873962E+08, 6.668904259495381E+07, 4.444585659345584E+07,
2459846.500000000, A.D. 2022-Sep-24 00:00:00.0000, 3.220743495246058E+08, 7.972095348813038E+07, 4.359112299478470E+07,
2459853.500000000, A.D. 2022-Oct-01 00:00:00.0000, 3.232657334460613E+08, 9.264966768610182E+07, 4.267987810290149E+07,
2459860.500000000, A.D. 2022-Oct-08 00:00:00.0000, 3.240543902514301E+08, 1.054629698660137E+08, 4.171539507240468E+07,
2459867.500000000, A.D. 2022-Oct-15 00:00:00.0000, 3.244544909162847E+08, 1.181498123744690E+08, 4.070082684013171E+07,
2459874.500000000, A.D. 2022-Oct-22 00:00:00.0000, 3.244800128541558E+08, 1.307002337564057E+08, 3.963920454646627E+07,
2459881.500000000, A.D. 2022-Oct-29 00:00:00.0000, 3.241446921132025E+08, 1.431052773317537E+08, 3.853343712062044E+07,
2459888.500000000, A.D. 2022-Nov-05 00:00:00.0000, 3.234619869304465E+08, 1.553569131510087E+08, 3.738631181166966E+07,
2459895.500000000, A.D. 2022-Nov-12 00:00:00.0000, 3.224450494979201E+08, 1.674479650006377E+08, 3.620049573166752E+07,
2459902.500000000, A.D. 2022-Nov-19 00:00:00.0000, 3.211067041467824E+08, 1.793720417524661E+08, 3.497853821105187E+07,
2459909.500000000, A.D. 2022-Nov-26 00:00:00.0000, 3.194594312404703E+08, 1.911234727822370E+08, 3.372287374786128E+07,
2459916.500000000, A.D. 2022-Dec-03 00:00:00.0000, 3.175153560716941E+08, 2.026972474705182E+08, 3.243582539598602E+07,
2459923.500000000, A.D. 2022-Dec-10 00:00:00.0000, 3.152862420335271E+08, 2.140889587549577E+08, 3.111960847240633E+07,
2459930.500000000, A.D. 2022-Dec-17 00:00:00.0000, 3.127834874047567E+08, 2.252947506039455E+08, 2.977633448073435E+07,
2459937.500000000, A.D. 2022-Dec-24 00:00:00.0000, 3.100181252589619E+08, 2.363112692010993E+08, 2.840801515411219E+07,
2459944.500000000, A.D. 2022-Dec-31 00:00:00.0000, 3.070008263331565E+08, 2.471356177753809E+08, 2.701656652649136E+07,
2459951.500000000, A.D. 2023-Jan-07 00:00:00.0000, 3.037419045262062E+08, 2.577653158462027E+08, 2.560381304480563E+07,
2459958.500000000, A.D. 2023-Jan-14 00:00:00.0000, 3.002513226654302E+08, 2.681982631765159E+08, 2.417149189869928E+07,
2459965.500000000, A.D. 2023-Jan-21 00:00:00.0000, 2.965386975604242E+08, 2.784327050595616E+08, 2.272125733346988E+07,
2459972.500000000, A.D. 2023-Jan-28 00:00:00.0000, 2.926133077321296E+08, 2.884671985401915E+08, 2.125468456730376E+07,
2459979.500000000, A.D. 2023-Feb-04 00:00:00.0000, 2.884841033662351E+08, 2.983005823938257E+08, 1.977327355859306E+07,
2459986.500000000, A.D. 2023-Feb-11 00:00:00.0000, 2.841597164889991E+08, 3.079319504731059E+08, 1.827845275621217E+07,
2459993.500000000, A.D. 2023-Feb-18 00:00:00.0000, 2.796484711301593E+08, 3.173606274106750E+08, 1.677158275999047E+07,
2460000.500000000, A.D. 2023-Feb-25 00:00:00.0000, 2.749583935914851E+08, 3.265861463359781E+08, 1.525395984646909E+07,
2460007.500000000, A.D. 2023-Mar-04 00:00:00.0000, 2.700972228017360E+08, 3.356082284541519E+08, 1.372681934743586E+07,
2460014.500000000, A.D. 2023-Mar-11 00:00:00.0000, 2.650724206849011E+08, 3.444267643282875E+08, 1.219133887666014E+07,
2460021.500000000, A.D. 2023-Mar-18 00:00:00.0000, 2.598911825053049E+08, 3.530417966692277E+08, 1.064864139684126E+07,
2460028.500000000, A.D. 2023-Mar-25 00:00:00.0000, 2.545604473268428E+08, 3.614535044517200E+08, 9.099798106413484E+06,
2460035.500000000, A.D. 2023-Apr-01 00:00:00.0000, 2.490869089606278E+08, 3.696621886265213E+08, 7.545831142559126E+06,
2460042.500000000, A.D. 2023-Apr-08 00:00:00.0000, 2.434770267474188E+08, 3.776682605360793E+08, 5.987716260478616E+06,
2460049.500000000, A.D. 2023-Apr-15 00:00:00.0000, 2.377370338053817E+08, 3.854722318163713E+08, 4.426385616962075E+06,
2460056.500000000, A.D. 2023-Apr-22 00:00:00.0000, 2.318729445269190E+08, 3.930747026341033E+08, 2.862730247814119E+06,
2460063.500000000, A.D. 2023-Apr-29 00:00:00.0000, 2.258905640441683E+08, 4.004763504217126E+08, 1.297602177122533E+06,
2460070.500000000, A.D. 2023-May-06 00:00:00.0000, 2.197954978909124E+08, 4.076779208048726E+08, -2.681835298353732E+05,
2460077.500000000, A.D. 2023-May-13 00:00:00.0000, 2.135931608749354E+08, 4.146802197504371E+08, -1.833846748312950E+06,
2460084.500000000, A.D. 2023-May-20 00:00:00.0000, 2.072887853901793E+08, 4.214841063730229E+08, -3.398640366838992E+06,
2460091.500000000, A.D. 2023-May-27 00:00:00.0000, 2.008874293609752E+08, 4.280904863063444E+08, -4.961848466034263E+06,
2460098.500000000, A.D. 2023-Jun-03 00:00:00.0000, 1.943939838773806E+08, 4.345003056063629E+08, -6.522784601672173E+06,
2460105.500000000, A.D. 2023-Jun-10 00:00:00.0000, 1.878131805489025E+08, 4.407145451186690E+08, -8.080790190435112E+06,
2460112.500000000, A.D. 2023-Jun-17 00:00:00.0000, 1.811495986707403E+08, 4.467342152009574E+08, -9.635233006718874E+06,
2460119.500000000, A.D. 2023-Jun-24 00:00:00.0000, 1.744076725289751E+08, 4.525603508117893E+08, -1.118550581072271E+07,
2460126.500000000, A.D. 2023-Jul-01 00:00:00.0000, 1.675916991058007E+08, 4.581940077535834E+08, -1.273102505904168E+07,
2460133.500000000, A.D. 2023-Jul-08 00:00:00.0000, 1.607058445198933E+08, 4.636362608539487E+08, -1.427122947290057E+07,
2460140.500000000, A.D. 2023-Jul-15 00:00:00.0000, 1.537541479327827E+08, 4.688882012196333E+08, -1.580557857382786E+07,
2460147.500000000, A.D. 2023-Jul-22 00:00:00.0000, 1.467405264504335E+08, 4.739509314992634E+08, -1.733355159016228E+07,
$$EOE